0 SL-8 R/B
1 10677U 78019B   13282.14929957  .00000342  00000-0  11818-3 0  2341
2 10677 074.0373 269.3868 0016566 312.3426 047.6325 14.39452650868620
0 SL-8 R/B
1 10677U 78019B   13283.46977788  .00000299  00000-0  10446-3 0  2350
2 10677 074.0373 266.9491 0016595 309.7924 050.1769 14.39453651868814
0 SL-8 R/B
1 10677U 78019B   13286.11073219  .00000235  00000-0  83982-4 0  2379
2 10677 074.0377 262.0736 0016647 304.6969 055.2616 14.39454885869197
0 SL-8 R/B
1 10677U 78019B   13287.43120850  .00000238  00000-0  84795-4 0  2386
2 10677 074.0379 259.6357 0016660 302.2402 057.7137 14.39455398869387
0 SL-8 R/B
1 10677U 78019B   13288.47368923  .00000293  00000-0  10236-3 0  2396
2 10677 074.0381 257.7112 0016645 300.3331 059.6177 14.39456153869533
0 SL-8 R/B
1 10677U 78019B   13289.79416381  .00000292  00000-0  10212-3 0  2409
2 10677 074.0384 255.2735 0016670 297.6989 062.2474 14.39457189869726
0 SL-8 R/B
1 10677U 78019B   13291.18413641  .00000282  00000-0  98898-4 0  2418
2 10677 074.0386 252.7077 0016679 294.9617 064.9805 14.39457705869929
0 SL-8 R/B
1 10677U 78019B   13292.43511149  .00000287  00000-0  10057-3 0  2425
2 10677 074.0388 250.3985 0016727 292.3946 067.5437 14.39458249870100
0 SL-8 R/B
1 10677U 78019B   13293.82508289  .00000333  00000-0  11529-3 0  2438
2 10677 074.0387 247.8329 0016722 289.6797 070.2553 14.39459198870306
0 SL-8 R/B
1 10677U 78019B   13295.14555496  .00000357  00000-0  12295-3 0  2445
2 10677 074.0389 245.3956 0016733 287.0931 072.8391 14.39460612870492
